OBJECT_NAME,OBJECT_ID,EPOCH,MEAN_MOTION,ECCENTRICITY,INCLINATION,RA_OF_ASC_NODE,ARG_OF_PERICENTER,MEAN_ANOMALY,EPHEMERIS_TYPE,CLASSIFICATION_TYPE,NORAD_CAT_ID,ELEMENT_SET_NO,REV_AT_EPOCH,BSTAR,MEAN_MOTION_DOT,MEAN_MOTION_DDOT
CUBEBUG-2 (LO-74),2013-066AA,2026-06-18T14:29:33.446976,14.93772226,.0058306,97.8910,118.5878,24.5043,335.8927,0,U,39440,999,67720,.37369E-3,.4033E-4,0
FUNCUBE-1 (AO-73),2013-066AE,2026-06-18T15:32:22.593408,15.09504260,.0035755,97.8281,141.1237,195.6832,164.3291,0,U,39444,999,67988,.3018E-3,.484E-4,0
UWE-3,2013-066AG,2026-06-18T14:51:46.986048,14.97034048,.0047372,97.8699,125.7026,316.3669,43.3811,0,U,39446,999,67779,.31072E-3,.3597E-4,0
UNISAT-6,2014-033C,2026-06-18T09:51:28.369728,14.88251057,.00462,97.7883,322.1006,65.3888,295.2132,0,U,40012,999,64634,.21275E-3,.1947E-4,0
DUCHIFAT-1,2014-033M,2026-06-18T16:25:31.161216,15.64848252,.0002814,98.0447,229.0553,113.8680,246.2872,0,U,40021,999,65598,.89916E-3,.88318E-3,0
QB50P1,2014-033R,2026-06-18T14:24:00.294624,15.18277268,.0007983,98.0962,180.8450,209.9659,150.1117,0,U,40025,999,65324,.30544E-3,.6188E-4,0
LILACSAT-2,2015-049K,2026-06-18T16:35:20.174208,15.51485488,.0005618,97.4639,206.5902,237.7727,122.2981,0,U,40908,999,59598,.23071E-3,.1354E-3,0
FOX-1A (AO-85),2015-058D,2026-06-18T16:39:25.987392,14.90975407,.0130534,64.7758,274.3012,56.0068,305.3365,0,U,40967,999,11379,.17186E-3,.1823E-4,0
CAS-2T & KS-1Q,2016-066G,2026-06-18T16:40:56.584704,14.44698848,.0342835,98.3822,245.4143,124.9191,238.4724,0,U,41847,999,50501,.19891E-3,.1369E-4,0
RADFXSAT (FOX-1B),2017-073E,2026-06-17T14:31:00.659136,15.12722439,.0149538,97.4696,35.8108,327.7970,31.4193,0,U,43017,999,46545,.24962E-3,.5679E-4,0
DIWATA-2B,2018-084H,2026-06-18T18:29:20.774112,15.00458892,.0012612,98.1179,6.0469,164.9756,195.1844,0,U,43678,999,41645,.17483E-3,.2138E-4,0
ES'HAIL 2,2018-090A,2026-06-18T14:45:19.507968,1.00271454,.0001693,0.0161,25.7861,98.4138,29.7600,0,U,43700,999,2769,0,.138E-5,0
FOX-1CLIFF (AO-95),2018-099N,2026-06-18T03:01:57.284544,15.26728638,.00078742,97.4378,229.3690,354.3313,5.7835,0,U,43770,999,41336,.35966179E-3,.939E-4,0
ITASAT,2018-099AE,2026-06-18T09:43:10.752384,15.19069917,.0011961,97.4024,220.8924,356.0419,4.0719,0,U,43786,999,41309,.25058E-3,.5196E-4,0
JY1SAT (JO-97),2018-099AX,2026-06-18T03:21:08.262144,15.33679040,.00043897,97.4123,231.9773,257.5077,102.5675,0,U,43803,999,41377,.43793924E-3,.14196E-3,0
UWE-4,2018-111E,2026-06-18T06:00:53.776224,15.46181512,.0005301,97.5854,97.6902,337.5186,22.5830,0,U,43880,999,41094,.50223E-3,.24613E-3,0
TIANYAN 01,2019-093C,2026-06-18T17:27:41.755968,14.86519584,.0015079,97.7533,241.9221,82.1067,278.1860,0,U,44881,999,35164,.9206E-5,.28E-6,0
RS-44 & BREEZE-KM R/B,2019-096E,2026-06-18T17:24:15.947712,12.79748853,.021823,82.5220,338.6827,140.5822,221.1390,0,U,44909,999,30254,-.19365E-4,.8E-7,0
SALSAT,2020-068K,2026-06-18T10:53:20.067072,15.29814902,.0007987,97.8850,172.5954,302.8690,57.1780,0,U,46495,999,31555,.21401E-3,.61E-4,0
XW-3 (CAS-9),2021-131B,2026-06-18T17:17:45.970080,14.41359091,.0005404,98.4988,262.1020,93.3186,266.8621,0,U,50466,999,23533,.15484E-3,.457E-5,0
GREENCUBE (IO-117),2022-080E,2026-06-18T10:18:19.245024,6.42583246,.0008904,70.1442,297.8130,289.4279,70.5418,0,U,53109,999,9214,0,-.3E-7,0
UMKA 1 (RS40S),2023-091G,2026-06-18T16:09:08.787168,15.20832458,.0014277,97.5047,228.3646,113.0288,247.2454,0,U,57172,999,16423,.21483E-3,.4682E-4,0
CUBESX-HSE 3 (RS42S),2023-091N,2026-06-18T16:14:41.631072,15.31245573,.0012009,97.5088,235.2829,90.2977,269.9640,0,U,57178,999,16465,.34013E-3,.10211E-3,0
MONITOR-3 (RS58S),2023-091Q,2026-06-18T15:20:23.078400,15.27866274,.0013084,97.5078,233.0958,96.3442,263.9288,0,U,57180,999,16451,.31551E-3,.853E-4,0
MONITOR-4 (RS57S),2023-091S,2026-06-18T14:50:06.602208,15.27951714,.0013076,97.5073,233.0461,96.8342,263.4385,0,U,57182,999,16451,.31403E-3,.8511E-4,0
MONITOR-2 (RS39S),2023-091U,2026-06-18T15:07:34.396608,15.18922029,.0012757,97.5069,227.9039,106.7706,253.4928,0,U,57184,999,16417,.19902E-3,.4094E-4,0
SVYATOBOR 1 (RS60S),2023-091X,2026-06-18T15:10:44.004000,15.26635838,.0010859,97.5085,233.4574,90.2761,269.9721,0,U,57187,999,16453,.26365E-3,.6846E-4,0
VIZARD-METEO (RS38S),2023-091Z,2026-06-18T15:30:09.002592,15.36064676,.0008175,97.5088,239.1603,73.4324,286.7817,0,U,57189,999,16491,.36917E-3,.12904E-3,0
POLYTECH-UNIVERSE 3 (RS46S),2023-091AB,2026-06-18T15:46:28.081344,15.19124722,.0016933,97.5044,227.4353,122.1173,238.1707,0,U,57191,999,16417,.20075E-3,.4161E-4,0
UTMN 2 (RS27S),2023-091AP,2026-06-18T16:38:50.815680,15.32082736,.0009177,97.5084,236.9357,79.2625,280.9649,0,U,57203,999,16477,.33052E-3,.10174E-3,0
